satname,norad_id,inclination_deg,eccentricity,mean_motion_rev_per_day,perigee_km,apogee_km,l1,l2
STARLINK-1225,45187,53.1579,0.000201,15.31414226,470.21520958895326,472.9688006490105,1 45187U 20012K   26115.36868784  .00041517  00000+0  13541-2 0  9998,2 45187  53.1579 182.7680 0002010  29.9407 330.1709 15.31414226342082
STARLINK-1230,45189,53.1574,0.0002299,15.3143285,469.96173130821535,473.1112111702905,1 45189U 20012M   26115.50864956  .00031670  00000+0  10365-2 0  9993,2 45189  53.1574 182.1734 0002299  32.2057 327.9085 15.31432850339338
STARLINK-1234,45190,53.0405,0.0009051,15.6879736,356.2388373523472,368.4404481710744,1 45190U 20012N   26115.36310671  .00066106  00000+0  56589-3 0  9990,2 45190  53.0405  95.8137 0009051  74.7668 285.4348 15.68797360343190
STARLINK-1269,45197,53.1579,0.0002017,15.31457263,470.0821127074778,472.84524162064645,1 45197U 20012V   26115.37433103  .00033215  00000+0  10855-2 0  9994,2 45197  53.1579 182.6517 0002017  14.4525 345.6534 15.31457263342061
STARLINK-1154,45198,53.0432,0.0004074,15.53420379,403.98412096899665,409.51244549777493,1 45198U 20012W   26115.49862070  .00057097  00000+0  88691-3 0  9995,2 45198  53.0432 145.3860 0004074 335.0368  25.0443 15.53420379342552
STARLINK-1199,45201,53.1579,0.0002085,15.31394397,470.2229525332523,473.0793141848626,1 45201U 20012Z   26115.54015468  .00033753  00000+0  11049-2 0  9992,2 45201  53.1579 166.1362 0002085  38.9503 321.1649 15.31394397342338
STARLINK-1209,45206,53.0415,0.0012334,15.59146042,381.77933471621327,398.47528912085545,1 45206U 20012AE  26115.26144247  .00107825  00000+0  13372-2 0  9997,2 45206  53.0415 108.1357 0012334  58.7027 301.5190 15.59146042342166
STARLINK-1231,45212,53.0386,0.0004109,15.24899227,488.2654877818177,493.91061692984476,1 45212U 20012AL  26115.53022162  .00027538  00000+0  11017-2 0  9991,2 45212  53.0386 159.9627 0004109 319.6427  40.4264 15.24899227342363
STARLINK-1271,45217,53.1586,0.0002335,15.31265636,470.4356025847301,473.63463296373084,1 45217U 20012AR  26115.40894610  .00037896  00000+0  12434-2 0  9999,2 45217  53.1586 166.8864 0002335  35.2857 324.8298 15.31265636342318
STARLINK-1191,45222,53.1561,0.0005264,15.34750375,458.0615797733508,465.26252021318487,1 45222U 20012AW  26115.75651775  .00024163  00000+0  71578-3 0  9994,2 45222  53.1561 139.4378 0005264  34.3278 325.8064 15.34750375342734
STARLINK-1212,45223,53.0432,0.0006548,15.61189341,379.79245348846416,388.64843679862315,1 45223U 20012AX  26115.90758843  .00100341  00000+0  11552-2 0  9994,2 45223  53.0432 121.1789 0006548   6.6008 353.5090 15.61189341342998
STARLINK-1215,45225,53.1572,0.0002192,15.31569605,469.62736446630424,472.6300825594926,1 45225U 20012AZ  26116.00003472  .00082631  00000+0  26559-2 0  9993,2 45225  53.1572 138.4593 0002192  58.4591 298.0156 15.31569605  5829
STARLINK-1221,45227,53.0663,0.0003565,15.43516719,433.3107425108992,438.1690367332003,1 45227U 20012BB  26115.94244793  .00019298  00000+0  43173-3 0  9991,2 45227  53.0663  45.4045 0003565 125.9602 234.1734 15.43516719344008
STARLINK-1222,45228,53.053,7.11e-05,15.52308111,409.5062884305653,410.4715599369838,1 45228U 20012BC  26115.72517489  .00029553  00000+0  48324-3 0  9991,2 45228  53.0530 116.8028 0000711  12.3433 347.7593 15.52308111342925
STARLINK-1226,45229,53.156,0.000332,15.39465757,445.4218713919845,449.9542192220679,1 45229U 20012BD  26115.35350908  .00046172  00000+0  11630-2 0  9997,2 45229  53.1560 140.0988 0003320  37.0689 323.0544 15.39465757342580
STARLINK-1227,45230,53.155,0.0004175,15.39541619,444.61412356163146,450.3135002395675,1 45230U 20012BE  26115.75627687  .00037450  00000+0  94388-3 0  9995,2 45230  53.1550 138.3568 0004175  40.9477 319.1840 15.39541619342769
STARLINK-1246,45235,53.1576,0.0002535,15.31606557,469.282297174027,472.7548190419875,1 45235U 20012BK  26115.64503857  .00032570  00000+0  10598-2 0  9998,2 45235  53.1576 181.0539 0002535  51.7822 308.3408 15.31606557342166
STARLINK-1270,45237,53.0445,0.0005482,15.54759915,399.1332792288531,406.5679540517376,1 45237U 20012BM  26115.94252639  .00081553  00000+0  11995-2 0  9999,2 45237  53.0445 120.4384 0005482  27.5390 332.5910 15.54759915343005
STARLINK-1279,45360,53.0379,0.0006751,15.6736967,361.87895221694,370.9854695654858,1 45360U 20019A   26115.59116501  .00096896  00000+0  87435-3 0  9990,2 45360  53.0379 229.4342 0006751 323.6492  36.4064 15.67369670338008
STARLINK-1301,45361,53.0391,0.0004511,15.70891431,353.3101399423949,359.38599236908067,1 45361U 20019B   26115.57234955  .00060892  00000+0  47938-3 0  9994,2 45361  53.0391 232.9282 0004511 353.9939   6.1023 15.70891431337961
STARLINK-1262,45366,53.1572,1.27e-05,15.30441531,474.4069678219148,474.5810246492192,1 45366U 20019G   26115.84797734  .00038785  00000+0  13050-2 0  9991,2 45366  53.1572 306.2564 0000127 176.8807 183.2195 15.30441531336976
STARLINK-1273,45367,53.0491,0.0003158,15.51141346,411.24774116965364,415.5372712057615,1 45367U 20019H   26115.80020308  .00067879  00000+0  11413-2 0  9991,2 45367  53.0491 289.4945 0003158 219.9150 140.1627 15.51141346337199
STARLINK-1277,45369,53.0472,0.0004703,15.56965645,393.2586684060252,399.6308400040307,1 45369U 20019K   26115.73526140  .00070910  00000+0  96379-3 0  9995,2 45369  53.0472 285.8177 0004703 217.0583 143.0103 15.56965645337241
STARLINK-1281,45370,53.1586,5.06e-05,15.31448165,471.14421396078524,471.83739629466345,1 45370U 20019L   26115.82073009  .00036874  00000+0  12035-2 0  9995,2 45370  53.1586 306.2841 0000506 274.0025  86.0918 15.31448165336972
STARLINK-1300,45374,53.1613,5.86e-05,15.31593036,470.6575050225747,471.4602307782934,1 45374U 20019Q   26115.84195779  .00036054  00000+0  11719-2 0  9998,2 45374  53.1613 306.1851 0000586 347.4994  12.5993 15.31593036336970
STARLINK-1302,45375,53.048,8.55e-05,15.61858897,381.7096462276604,382.86567884495344,1 45375U 20019R   26115.91872370  .00100315  00000+0  11264-2 0  9993,2 45375  53.0480 282.4020 0000855 222.4374 137.6573 15.61858897337302
STARLINK-1304,45376,53.0472,0.0002498,15.56173552,397.0505378358366,400.43626728495565,1 45376U 20019S   26115.83687362  .00085046  00000+0  11873-2 0  9999,2 45376  53.0472 282.4511 0002498 237.4599 122.6170 15.56173552337296
STARLINK-1305,45377,53.0406,0.0006414,15.62453746,376.2366561706658,384.90672768066815,1 45377U 20019T   26115.80110606  .00125686  00000+0  13722-2 0  9999,2 45377  53.0406 263.5012 0006414 287.9615  72.0699 15.62453746337568
STARLINK-1319,45379,53.0418,0.0001862,15.71025275,354.7116730899188,357.21945288437473,1 45379U 20019V   26115.89586447  .00073425  00000+0  57323-3 0  9999,2 45379  53.0418 256.9202 0001862 287.6941  72.3872 15.71025275337660
STARLINK-1266,45383,53.0466,0.0003046,15.52745998,406.64538530736536,410.77993412006253,1 45383U 20019Z   26115.68759557  .00069373  00000+0  11010-2 0  9994,2 45383  53.0466 267.6997 0003046 229.8307 130.2436 15.52745998337488
STARLINK-1267,45384,53.0462,0.0003983,15.5817716,390.23579688269365,395.62963101682635,1 45384U 20019AA  26115.69442126  .00062123  00000+0  80877-3 0  9991,2 45384  53.0462 260.0603 0003983 323.7501  36.3240 15.58177160337593
STARLINK-1272,45386,53.0401,0.0006503,15.65147047,368.42574285213686,377.206032177638,1 45386U 20019AC  26115.60537038  .00060419  00000+0  60087-3 0  9998,2 45386  53.0401 240.9601 0006503 306.9979  53.0440 15.65147047337852
STARLINK-1274,45387,53.023,0.0007121,15.54681515,398.24968038298084,407.90748761771465,1 45387U 20019AD  26115.82531625  .00079247  00000+0  11690-2 0  9993,2 45387  53.0230 236.2828 0007121 340.6653  19.4085 15.54681515337934
STARLINK-1280,45388,53.0403,0.0002946,15.71662202,352.1627483282682,356.12940951837027,1 45388U 20019AE  26115.67120362  .00069081  00000+0  52558-3 0  9993,2 45388  53.0403 250.6369 0002946 313.4739  46.6033 15.71662202337712
STARLINK-1283,45389,53.0411,0.000195,15.66340464,368.07058707399574,370.70212118210566,1 45389U 20019AF  26115.59402064  .00052708  00000+0  50135-3 0  9994,2 45389  53.0411 240.5027 0001950 355.4550   4.6447 15.66340464337868
STARLINK-1284,45390,53.0436,0.0003811,15.6006805,384.8819613848127,390.0386996701409,1 45390U 20019AG  26115.69406653  .00099367  00000+0  11951-2 0  9999,2 45390  53.0436 263.3726 0003811 247.2997 112.7613 15.60068050337540
STARLINK-1297,45395,53.043,0.0004615,15.63515067,374.39505235100114,380.6305171023032,1 45395U 20019AM  26115.87399572  .00109034  00000+0  11456-2 0  9998,2 45395  53.0430 261.2146 0004615 249.3411 110.7108 15.63515067336778
STARLINK-1307,45397,53.0534,6.26e-05,15.53811231,405.18577450140765,406.03509968053095,1 45397U 20019AP  26115.82113557  .00039308  00000+0  60576-3 0  9996,2 45397  53.0534 263.9306 0000626 100.6664 259.4416 15.53811231337370
STARLINK-1255,45399,53.037,0.0004716,15.60646517,382.5985422720396,388.978276718276,1 45399U 20019AR  26115.82251868  .00078960  00000+0  93236-3 0  9992,2 45399  53.0370 234.3447 0004716 322.2334  37.8347 15.60646517337774
STARLINK-1260,45404,53.158,0.0002345,15.33875028,462.6594695907097,465.8685556656319,1 45404U 20019AW  26115.80720870  .00041809  00000+0  12624-2 0  9994,2 45404  53.1580 269.8642 0002345 290.3653  69.7097 15.33875028337193
STARLINK-1263,45405,53.159,9.24e-05,15.31439003,470.8852160613724,472.1510323283228,1 45405U 20019AX  26115.83611594  .00038058  00000+0  12420-2 0  9996,2 45405  53.1590 270.2016 0000924 349.0341  11.0640 15.31439003337194
STARLINK-1265,45406,53.1584,0.0001503,15.34091418,462.5922485169067,464.6488808408503,1 45406U 20019AY  26115.80870000  .00042019  00000+0  12600-2 0  9995,2 45406  53.1584 269.9457 0001503 281.2195  78.8639 15.34091418337196
STARLINK-1278,45408,53.0412,0.0004316,15.64705457,371.1717342396587,377.000253127806,1 45408U 20019BA  26115.79574866  .00051407  00000+0  52196-3 0  9992,2 45408  53.0412 260.8044 0004316 286.0222  74.0317 15.64705457337311
